[
    {
        "Altitude(m)": 553593.207478607,
        "Argument of Periapsis(deg)": 0.006622991110713501,
        "Eccentricity": 0.0,
        "Inclination(deg)": 53.0,
        "Latitude(deg)": 16.505842330703256,
        "Longitude(deg)": -58.60391769982493,
        "Mean Anomaly(deg)": -200.81750713242246,
        "RAAN(deg)": 234.99014336852798,
        "Satellite Name": "Starlink Shell 1 1043",
        "Satellite Number": 1043,
        "Semi-Major Axis(m)": 6931778.249405717,
        "Time(s)": 190
    },
    {
        "Altitude(m)": 553571.0340252535,
        "Argument of Periapsis(deg)": 0.0069715695902247375,
        "Eccentricity": 0.0,
        "Inclination(deg)": 53.0,
        "Latitude(deg)": 16.014285651206894,
        "Longitude(deg)": -58.23658249642805,
        "Mean Anomaly(deg)": -200.19067592886574,
        "RAAN(deg)": 234.98962459845052,
        "Satellite Name": "Starlink Shell 1 1043",
        "Satellite Number": 1043,
        "Semi-Major Axis(m)": 6931778.249405717,
        "Time(s)": 200
    },
    {
        "Altitude(m)": 553551.2404494182,
        "Argument of Periapsis(deg)": 0.007320148069735974,
        "Eccentricity": 0.0,
        "Inclination(deg)": 53.0,
        "Latitude(deg)": 15.521936291827595,
        "Longitude(deg)": -57.87124474516941,
        "Mean Anomaly(deg)": -199.56384472530897,
        "RAAN(deg)": 234.98910582837308,
        "Satellite Name": "Starlink Shell 1 1043",
        "Satellite Number": 1043,
        "Semi-Major Axis(m)": 6931778.249405717,
        "Time(s)": 210
    },
    {
        "Altitude(m)": 553533.8586190382,
        "Argument of Periapsis(deg)": 0.007668726549247212,
        "Eccentricity": 0.0,
        "Inclination(deg)": 53.0,
        "Latitude(deg)": 15.028823549196048,
        "Longitude(deg)": -57.507833937502376,
        "Mean Anomaly(deg)": -198.9370135217523,
        "RAAN(deg)": 234.9885870582956,
        "Satellite Name": "Starlink Shell 1 1043",
        "Satellite Number": 1043,
        "Semi-Major Axis(m)": 6931778.249405717,
        "Time(s)": 220
    },
    {
        "Altitude(m)": 553518.9193234618,
        "Argument of Periapsis(deg)": 0.00801730502875845,
        "Eccentricity": 0.0,
        "Inclination(deg)": 53.0,
        "Latitude(deg)": 14.534976295410475,
        "Longitude(deg)": -57.146280381099515,
        "Mean Anomaly(deg)": -198.31018231819556,
        "RAAN(deg)": 234.98806828821813,
        "Satellite Name": "Starlink Shell 1 1043",
        "Satellite Number": 1043,
        "Semi-Major Axis(m)": 6931778.249405717,
        "Time(s)": 230
    },
    {
        "Altitude(m)": 553506.4522554963,
        "Argument of Periapsis(deg)": 0.008365883508269684,
        "Eccentricity": 0.0,
        "Inclination(deg)": 53.0,
        "Latitude(deg)": 14.04042299522088,
        "Longitude(deg)": -56.78651466862322,
        "Mean Anomaly(deg)": -197.6833511146389,
        "RAAN(deg)": 234.98754951814064,
        "Satellite Name": "Starlink Shell 1 1043",
        "Satellite Number": 1043,
        "Semi-Major Axis(m)": 6931778.249405717,
        "Time(s)": 240
    },
    {
        "Altitude(m)": 553496.4859940087,
        "Argument of Periapsis(deg)": 0.008714461987780921,
        "Eccentricity": 0.0,
        "Inclination(deg)": 53.0,
        "Latitude(deg)": 13.545191722850003,
        "Longitude(deg)": -56.42846865933042,
        "Mean Anomaly(deg)": -197.0565199110821,
        "RAAN(deg)": 234.98703074806315,
        "Satellite Name": "Starlink Shell 1 1043",
        "Satellite Number": 1043,
        "Semi-Major Axis(m)": 6931778.249405717,
        "Time(s)": 250
    },
    {
        "Altitude(m)": 553489.0479870278,
        "Argument of Periapsis(deg)": 0.009063040467292158,
        "Eccentricity": 0.0,
        "Inclination(deg)": 53.0,
        "Latitude(deg)": 13.049310178468597,
        "Longitude(deg)": -56.072074947790426,
        "Mean Anomaly(deg)": -196.4296887075254,
        "RAAN(deg)": 234.9865119779857,
        "Satellite Name": "Starlink Shell 1 1043",
        "Satellite Number": 1043,
        "Semi-Major Axis(m)": 6931778.249405717,
        "Time(s)": 260
    },
    {
        "Altitude(m)": 553484.1645354031,
        "Argument of Periapsis(deg)": 0.009411618946803396,
        "Eccentricity": 0.0,
        "Inclination(deg)": 53.0,
        "Latitude(deg)": 12.552805704333986,
        "Longitude(deg)": -55.717266332607714,
        "Mean Anomaly(deg)": -195.8028575039687,
        "RAAN(deg)": 234.98599320790822,
        "Satellite Name": "Starlink Shell 1 1043",
        "Satellite Number": 1043,
        "Semi-Major Axis(m)": 6931778.249405717,
        "Time(s)": 270
    },
    {
        "Altitude(m)": 553481.8607770605,
        "Argument of Periapsis(deg)": 0.009760197426314633,
        "Eccentricity": 0.0,
        "Inclination(deg)": 53.0,
        "Latitude(deg)": 12.055705300604597,
        "Longitude(deg)": -55.36397679804008,
        "Mean Anomaly(deg)": -195.176026300412,
        "RAAN(deg)": 234.98547443783073,
        "Satellite Name": "Starlink Shell 1 1043",
        "Satellite Number": 1043,
        "Semi-Major Axis(m)": 6931778.249405717,
        "Time(s)": 280
    },
    {
        "Altitude(m)": 553482.1606717717,
        "Argument of Periapsis(deg)": 0.01010877590582587,
        "Eccentricity": 0.0,
        "Inclination(deg)": 53.0,
        "Latitude(deg)": 11.55803564084578,
        "Longitude(deg)": -55.012140982782874,
        "Mean Anomaly(deg)": -194.5491950968553,
        "RAAN(deg)": 234.98495566775333,
        "Satellite Name": "Starlink Shell 1 1043",
        "Satellite Number": 1043,
        "Semi-Major Axis(m)": 6931778.249405717,
        "Time(s)": 290
    },
    {
        "Altitude(m)": 553485.0869865117,
        "Argument of Periapsis(deg)": 0.010457354385337106,
        "Eccentricity": 0.0,
        "Inclination(deg)": 53.0,
        "Latitude(deg)": 11.059823087236866,
        "Longitude(deg)": -54.661693648804125,
        "Mean Anomaly(deg)": -193.92236389329852,
        "RAAN(deg)": 234.9844368976758,
        "Satellite Name": "Starlink Shell 1 1043",
        "Satellite Number": 1043,
        "Semi-Major Axis(m)": 6931778.249405717,
        "Time(s)": 300
    },
    {
        "Altitude(m)": 553490.6612814307,
        "Argument of Periapsis(deg)": 0.010805932864848343,
        "Eccentricity": 0.0,
        "Inclination(deg)": 53.0,
        "Latitude(deg)": 10.561093705492421,
        "Longitude(deg)": -54.31257066311433,
        "Mean Anomaly(deg)": -193.29553268974183,
        "RAAN(deg)": 234.98391812759832,
        "Satellite Name": "Starlink Shell 1 1043",
        "Satellite Number": 1043,
        "Semi-Major Axis(m)": 6931778.249405717,
        "Time(s)": 310
    },
    {
        "Altitude(m)": 553498.9038963822,
        "Argument of Periapsis(deg)": 0.01115451134435958,
        "Eccentricity": 0.0,
        "Inclination(deg)": 53.0,
        "Latitude(deg)": 10.061873279511014,
        "Longitude(deg)": -53.96470846673486,
        "Mean Anomaly(deg)": -192.66870148618517,
        "RAAN(deg)": 234.98339935752085,
        "Satellite Name": "Starlink Shell 1 1043",
        "Satellite Number": 1043,
        "Semi-Major Axis(m)": 6931778.249405717,
        "Time(s)": 320
    },
    {
        "Altitude(m)": 553509.8339380606,
        "Argument of Periapsis(deg)": 0.011503089823870818,
        "Eccentricity": 0.0,
        "Inclination(deg)": 53.0,
        "Latitude(deg)": 9.562187325764823,
        "Longitude(deg)": -53.61804354374662,
        "Mean Anomaly(deg)": -192.04187028262842,
        "RAAN(deg)": 234.98288058744336,
        "Satellite Name": "Starlink Shell 1 1043",
        "Satellite Number": 1043,
        "Semi-Major Axis(m)": 6931778.249405717,
        "Time(s)": 330
    },
    {
        "Altitude(m)": 553523.469267744,
        "Argument of Periapsis(deg)": 0.011851668303382053,
        "Eccentricity": 0.0,
        "Inclination(deg)": 53.0,
        "Latitude(deg)": 9.062061107438653,
        "Longitude(deg)": -53.272513403293694,
        "Mean Anomaly(deg)": -191.41503907907165,
        "RAAN(deg)": 234.98236181736593,
        "Satellite Name": "Starlink Shell 1 1043",
        "Satellite Number": 1043,
        "Semi-Major Axis(m)": 6931778.249405717,
        "Time(s)": 340
    },
    {
        "Altitude(m)": 553539.8264896591,
        "Argument of Periapsis(deg)": 0.012200246782893292,
        "Eccentricity": 0.0,
        "Inclination(deg)": 53.0,
        "Latitude(deg)": 8.561519648335747,
        "Longitude(deg)": -52.928056048805466,
        "Mean Anomaly(deg)": -190.78820787551493,
        "RAAN(deg)": 234.98184304728846,
        "Satellite Name": "Starlink Shell 1 1043",
        "Satellite Number": 1043,
        "Semi-Major Axis(m)": 6931778.249405717,
        "Time(s)": 350
    },
    {
        "Altitude(m)": 553558.9209399523,
        "Argument of Periapsis(deg)": 0.012548825262404526,
        "Eccentricity": 0.0,
        "Inclination(deg)": 53.0,
        "Latitude(deg)": 8.060587746559607,
        "Longitude(deg)": -52.5846094473095,
        "Mean Anomaly(deg)": -190.16137667195824,
        "RAAN(deg)": 234.98132427721097,
        "Satellite Name": "Starlink Shell 1 1043",
        "Satellite Number": 1043,
        "Semi-Major Axis(m)": 6931778.249405717,
        "Time(s)": 360
    },
    {
        "Altitude(m)": 553580.7666762914,
        "Argument of Periapsis(deg)": 0.012897403741915765,
        "Eccentricity": 0.0,
        "Inclination(deg)": 53.0,
        "Latitude(deg)": 7.559289987983363,
        "Longitude(deg)": -52.242112511711476,
        "Mean Anomaly(deg)": -189.5345454684016,
        "RAAN(deg)": 234.98080550713348,
        "Satellite Name": "Starlink Shell 1 1043",
        "Satellite Number": 1043,
        "Semi-Major Axis(m)": 6931778.249405717,
        "Time(s)": 370
    }
]